GOES 1 (SMS-C) [-]      
1 08366U 75100A   23189.58828675 -.00000011  00000+0  00000+0 0  9999
2 08366   7.3305 290.8623 0002147 237.2552 212.9267  1.00232698174432
GOES 2 [-]              
1 10061U 77048A   23188.37698303 -.00000183  00000+0  00000+0 0  9996
2 10061   8.9687 303.1019 0010244  39.9875   9.4005  0.99396476112822
GOES 3 [-]              
1 10953U 78062A   23188.82294878 -.00000139  00000+0  00000+0 0  9993
2 10953   9.3310 307.8910 0003705 164.0048 210.3665  0.99358281117919
GOES 4 [-]              
1 11964U 80074A   23189.14462045 -.00000231  00000+0  00000+0 0  9994
2 11964  10.3217 311.7249 0032894  87.3793 284.4509  0.99233647116965
GOES 5 [-]              
1 12472U 81049A   23189.34367591 -.00000160  00000+0  00000+0 0  9995
2 12472  11.2843 323.4218 0002417 168.9431 182.1837  1.00207040112183
GOES 6 [-]              
1 14050U 83041A   23190.47356236 -.00000082  00000+0  00000+0 0  9996
2 14050  11.9066 328.8138 0005303 155.9413 223.9672  1.00218012205291
GOES 7 [-]              
1 17561U 87022A   23190.45514751 -.00000157  00000+0  00000+0 0  9998
2 17561  13.9046 345.4543 0005465  89.0825 104.4338  0.99890201116251
GOES 8 [-]              
1 23051U 94022A   23189.59999545 -.00000019  00000+0  00000+0 0  9995
2 23051  13.5050  21.4707 0007424  61.1378 321.2021  0.98903355113492
GOES 9 [-]              
1 23581U 95025A   23189.22374741 -.00000104  00000+0  00000+0 0  9997
2 23581  13.0039  21.9547 0008830 110.1402 257.2292  0.98800944102131
GOES 10 [-]             
1 24786U 97019A   23189.89275616 -.00000317  00000+0  00000+0 0  9990
2 24786  11.8600  28.2877 0026688 205.4442 157.3303  0.99126557 95415
GOES 11 [-]             
1 26352U 00022A   23190.54839231  .00000022  00000+0  00000+0 0  9994
2 26352   9.5057  56.1756 0001204  90.0697 231.7966  0.99040327 84363
GOES 12 [-]             
1 26871U 01031A   23189.99577664 -.00000204  00000+0  00000+0 0  9990
2 26871  10.2142  45.5840 0005054 355.4216 184.7319  0.99137283 80083
EWS-G1 (GOES 13) [+]    
1 29155U 06018A   23189.80485900  .00000031  00000+0  00000+0 0  9996
2 29155   1.5820  91.5672 0003594  87.2865  98.9122  1.00276128 62733
GOES 14 [B]             
1 35491U 09033A   23190.54545427 -.00000069  00000+0  00000+0 0  9992
2 35491   0.3891 103.5609 0005520 338.9929 292.3974  1.00271615 51391
GOES 15 [B]             
1 36411U 10008A   23190.56118661  .00000020  00000+0  00000+0 0  9993
2 36411   0.4122  95.5664 0001250  63.8212 152.8229  0.99985278 48885
GOES 16 [+]             
1 41866U 16071A   23190.49438493 -.00000252  00000+0  00000+0 0  9997
2 41866   0.0306 209.2240 0000391 327.5832 213.1194  1.00270307 24331
GOES 17 [+]             
1 43226U 18022A   23190.54801081 -.00000094  00000+0  00000+0 0  9994
2 43226   0.0363 189.2421 0002246 284.6052 265.9194  1.00271067 19672
GOES 18 [+]             
1 51850U 22021A   23190.53109090  .00000093  00000+0  00000+0 0  9998
2 51850   0.0212 206.1369 0000530 296.0463 199.2022  1.00272966  5037
